[{"OBJECT_NAME":"STARLINK-34589","OBJECT_ID":"2025-144Z","EPOCH":"2026-03-09T12:47:38.138784","MEAN_MOTION":15.30202003,"ECCENTRICITY":0.00011559,"INCLINATION":53.1599,"RA_OF_ASC_NODE":169.2247,"ARG_OF_PERICENTER":144.3867,"MEAN_ANOMALY":215.7211,"EPHEMERIS_TYPE":0,"CLASSIFICATION_TYPE":"U","NORAD_CAT_ID":64747,"ELEMENT_SET_NO":999,"REV_AT_EPOCH":3986,"BSTAR":0.00076353672,"MEAN_MOTION_DOT":0.00022324,"MEAN_MOTION_DDOT":0},{"OBJECT_NAME":"OBJECT K","OBJECT_ID":"2025-155K","EPOCH":"2026-03-09T22:07:25.197888","MEAN_MOTION":15.34284916,"ECCENTRICITY":0.00088839,"INCLINATION":97.4419,"RA_OF_ASC_NODE":38.2399,"ARG_OF_PERICENTER":139.4299,"MEAN_ANOMALY":220.7607,"EPHEMERIS_TYPE":0,"CLASSIFICATION_TYPE":"U","NORAD_CAT_ID":64885,"ELEMENT_SET_NO":999,"REV_AT_EPOCH":6566,"BSTAR":0.00076172732,"MEAN_MOTION_DOT":0.00025288,"MEAN_MOTION_DDOT":0}]
